{
  "type": "FeatureCollection",
  "features": [
    {
      "type": "Feature",
      "properties": {
        "norad_id": 19071,
        "name": "OSCAR 32",
        "group": "nnss",
        "lat": 80.24107041451357,
        "lon": -161.33939568136358,
        "alt_km": 1041.9162634474706,
        "timestamp": "2025-12-21T09:37:22.923264+00:00",
        "meta_object_name": "OSCAR 32",
        "meta_object_id": "1988-033B",
        "meta_epoch": "2025-12-21T02:09:51.621120",
        "meta_mean_motion": 13.27955236,
        "meta_eccentricity": 0.0188993,
        "meta_inclination": 90.3209,
        "meta_ra_of_asc_node": 16.7837,
        "meta_arg_of_pericenter": 143.6549,
        "meta_mean_anomaly": 272.6875,
        "meta_ephemeris_type": 0,
        "meta_classification_type": "U",
        "meta_norad_cat_id": 19071,
        "meta_element_set_no": 999,
        "meta_rev_at_epoch": 82376,
        "meta_bstar": 0.00012996,
        "meta_mean_motion_dot": 7.4e-07,
        "meta_mean_motion_ddot": 0,
        "tle_line1": "1 19071U 88033B   25355.09018080  .00000074  00000+0  12996-3 0  9996",
        "tle_line2": "2 19071  90.3209  16.7837 0188993 143.6549 272.6875 13.27955236823761"
      },
      "geometry": {
        "type": "Point",
        "coordinates": [
          -161.33939568136358,
          80.24107041451357
        ]
      }
    },
    {
      "type": "Feature",
      "properties": {
        "norad_id": 19223,
        "name": "NOVA 2",
        "group": "nnss",
        "lat": 37.56126605013499,
        "lon": -101.74834798104746,
        "alt_km": 1190.2050667784015,
        "timestamp": "2025-12-21T09:37:22.923277+00:00",
        "meta_object_name": "NOVA 2",
        "meta_object_id": "1988-052A",
        "meta_epoch": "2025-12-21T00:42:28.697184",
        "meta_mean_motion": 13.22936699,
        "meta_eccentricity": 0.0029891,
        "meta_inclination": 89.9869,
        "meta_ra_of_asc_node": 78.2622,
        "meta_arg_of_pericenter": 354.0064,
        "meta_mean_anomaly": 180.0876,
        "meta_ephemeris_type": 0,
        "meta_classification_type": "U",
        "meta_norad_cat_id": 19223,
        "meta_element_set_no": 999,
        "meta_rev_at_epoch": 81057,
        "meta_bstar": 9.9762e-05,
        "meta_mean_motion_dot": 5.1e-07,
        "meta_mean_motion_ddot": 0,
        "tle_line1": "1 19223U 88052A   25355.02949881  .00000051  00000+0  99762-4 0  9993",
        "tle_line2": "2 19223  89.9869  78.2622 0029891 354.0064 180.0876 13.22936699810577"
      },
      "geometry": {
        "type": "Point",
        "coordinates": [
          -101.74834798104746,
          37.56126605013499
        ]
      }
    },
    {
      "type": "Feature",
      "properties": {
        "norad_id": 19419,
        "name": "OSCAR 25",
        "group": "nnss",
        "lat": 69.58023935066102,
        "lon": -159.63641727576206,
        "alt_km": 1117.008257720685,
        "timestamp": "2025-12-21T09:37:22.923288+00:00",
        "meta_object_name": "OSCAR 25",
        "meta_object_id": "1988-074A",
        "meta_epoch": "2025-12-21T02:00:29.260800",
        "meta_mean_motion": 13.4262484,
        "meta_eccentricity": 0.0094909,
        "meta_inclination": 90.0339,
        "meta_ra_of_asc_node": 20.2714,
        "meta_arg_of_pericenter": 221.6823,
        "meta_mean_anomaly": 157.0344,
        "meta_ephemeris_type": 0,
        "meta_classification_type": "U",
        "meta_norad_cat_id": 19419,
        "meta_element_set_no": 999,
        "meta_rev_at_epoch": 82752,
        "meta_bstar": 0.0001396,
        "meta_mean_motion_dot": 9e-07,
        "meta_mean_motion_ddot": 0,
        "tle_line1": "1 19419U 88074A   25355.08367200  .00000090  00000+0  13960-3 0  9997",
        "tle_line2": "2 19419  90.0339  20.2714 0094909 221.6823 157.0344 13.42624840827523"
      },
      "geometry": {
        "type": "Point",
        "coordinates": [
          -159.63641727576206,
          69.58023935066102
        ]
      }
    },
    {
      "type": "Feature",
      "properties": {
        "norad_id": 19420,
        "name": "OSCAR 31",
        "group": "nnss",
        "lat": -5.451493104645018,
        "lon": 20.62705984541144,
        "alt_km": 1156.2616729044094,
        "timestamp": "2025-12-21T09:37:22.923298+00:00",
        "meta_object_name": "OSCAR 31",
        "meta_object_id": "1988-074B",
        "meta_epoch": "2025-12-21T02:52:01.471008",
        "meta_mean_motion": 13.42586063,
        "meta_eccentricity": 0.009328,
        "meta_inclination": 90.0353,
        "meta_ra_of_asc_node": 20.6227,
        "meta_arg_of_pericenter": 215.7177,
        "meta_mean_anomaly": 218.4862,
        "meta_ephemeris_type": 0,
        "meta_classification_type": "U",
        "meta_norad_cat_id": 19420,
        "meta_element_set_no": 999,
        "meta_rev_at_epoch": 82763,
        "meta_bstar": 0.00013485,
        "meta_mean_motion_dot": 8.7e-07,
        "meta_mean_motion_ddot": 0,
        "tle_line1": "1 19420U 88074B   25355.11946147  .00000087  00000+0  13485-3 0  9994",
        "tle_line2": "2 19420  90.0353  20.6227 0093280 215.7177 218.4862 13.42586063827634"
      },
      "geometry": {
        "type": "Point",
        "coordinates": [
          20.62705984541144,
          -5.451493104645018
        ]
      }
    }
  ]
}